{
  "type": "FeatureCollection",
  "features": [
    {
      "type": "Feature",
      "properties": {
        "norad_id": 37836,
        "name": "EUTELSAT 16A",
        "group": "eutelsat",
        "lat": -0.000835041882130228,
        "lon": -175.33887563497032,
        "alt_km": 35782.2105975914,
        "timestamp": "2025-12-14T05:42:18.128821+00:00",
        "meta_object_name": "EUTELSAT 16A",
        "meta_object_id": "2011-057A",
        "meta_epoch": "2025-12-13T15:14:17.983968",
        "meta_mean_motion": 1.00272676,
        "meta_eccentricity": 0.00060637,
        "meta_inclination": 0.0603,
        "meta_ra_of_asc_node": 12.134,
        "meta_arg_of_pericenter": 254.663,
        "meta_mean_anomaly": 60.3452,
        "meta_ephemeris_type": 0,
        "meta_classification_type": "U",
        "meta_norad_cat_id": 37836,
        "meta_element_set_no": 999,
        "meta_rev_at_epoch": 546,
        "meta_bstar": 0,
        "meta_mean_motion_dot": 1.19e-06,
        "meta_mean_motion_ddot": 0,
        "tle_line1": "1 37836U 11057A   25347.63493037  .00000119  00000+0  00000+0 0  9996",
        "tle_line2": "2 37836   0.0603  12.1340 0006063 254.6630  60.3452  1.00272676  5466"
      },
      "geometry": {
        "type": "Point",
        "coordinates": [
          -175.33887563497032,
          -0.000835041882130228
        ]
      }
    },
    {
      "type": "Feature",
      "properties": {
        "norad_id": 38992,
        "name": "EUTELSAT 21B",
        "group": "eutelsat",
        "lat": -0.013330052962847387,
        "lon": -169.71057442023294,
        "alt_km": 35783.7627661726,
        "timestamp": "2025-12-14T05:42:18.128833+00:00",
        "meta_object_name": "EUTELSAT 21B",
        "meta_object_id": "2012-062B",
        "meta_epoch": "2025-12-13T15:15:55.328256",
        "meta_mean_motion": 1.00272887,
        "meta_eccentricity": 0.00033923,
        "meta_inclination": 0.0675,
        "meta_ra_of_asc_node": 7.9737,
        "meta_arg_of_pericenter": 264.6807,
        "meta_mean_anomaly": 60.4919,
        "meta_ephemeris_type": 0,
        "meta_classification_type": "U",
        "meta_norad_cat_id": 38992,
        "meta_element_set_no": 999,
        "meta_rev_at_epoch": 4796,
        "meta_bstar": 0,
        "meta_mean_motion_dot": 1.45e-06,
        "meta_mean_motion_ddot": 0,
        "tle_line1": "1 38992U 12062B   25347.63605704  .00000145  00000+0  00000+0 0  9992",
        "tle_line2": "2 38992   0.0675   7.9737 0003392 264.6807  60.4919  1.00272887 47964"
      },
      "geometry": {
        "type": "Point",
        "coordinates": [
          -169.71057442023294,
          -0.013330052962847387
        ]
      }
    },
    {
      "type": "Feature",
      "properties": {
        "norad_id": 39020,
        "name": "EUTELSAT 70B",
        "group": "eutelsat",
        "lat": -0.07862428756246342,
        "lon": -120.77528561082612,
        "alt_km": 35768.285357301385,
        "timestamp": "2025-12-14T05:42:18.128845+00:00",
        "meta_object_name": "EUTELSAT 70B",
        "meta_object_id": "2012-069A",
        "meta_epoch": "2025-12-13T15:29:46.500576",
        "meta_mean_motion": 1.00270851,
        "meta_eccentricity": 0.00043127,
        "meta_inclination": 0.0618,
        "meta_ra_of_asc_node": 347.944,
        "meta_arg_of_pericenter": 259.6878,
        "meta_mean_anomaly": 137.896,
        "meta_ephemeris_type": 0,
        "meta_classification_type": "U",
        "meta_norad_cat_id": 39020,
        "meta_element_set_no": 999,
        "meta_rev_at_epoch": 4764,
        "meta_bstar": 0,
        "meta_mean_motion_dot": -2.8e-07,
        "meta_mean_motion_ddot": 0,
        "tle_line1": "1 39020U 12069A   25347.64567709 -.00000028  00000+0  00000+0 0  9996",
        "tle_line2": "2 39020   0.0618 347.9440 0004312 259.6878 137.8960  1.00270851 47646"
      },
      "geometry": {
        "type": "Point",
        "coordinates": [
          -120.77528561082612,
          -0.07862428756246342
        ]
      }
    },
    {
      "type": "Feature",
      "properties": {
        "norad_id": 39122,
        "name": "EUTELSAT 117 WEST A",
        "group": "eutelsat",
        "lat": 0.02452068975578953,
        "lon": 51.93741921515252,
        "alt_km": 35796.0731760723,
        "timestamp": "2025-12-14T05:42:18.128858+00:00",
        "meta_object_name": "EUTELSAT 117 WEST A",
        "meta_object_id": "2013-012A",
        "meta_epoch": "2025-12-13T12:57:15.289056",
        "meta_mean_motion": 1.00271918,
        "meta_eccentricity": 0.00028701,
        "meta_inclination": 0.017,
        "meta_ra_of_asc_node": 20.0014,
        "meta_arg_of_pericenter": 246.1172,
        "meta_mean_anomaly": 253.859,
        "meta_ephemeris_type": 0,
        "meta_classification_type": "U",
        "meta_norad_cat_id": 39122,
        "meta_element_set_no": 999,
        "meta_rev_at_epoch": 4657,
        "meta_bstar": 0,
        "meta_mean_motion_dot": 2e-08,
        "meta_mean_motion_ddot": 0,
        "tle_line1": "1 39122U 13012A   25347.53976029  .00000002  00000+0  00000+0 0  9996",
        "tle_line2": "2 39122   0.0170  20.0014 0002870 246.1172 253.8590  1.00271918 46577"
      },
      "geometry": {
        "type": "Point",
        "coordinates": [
          51.93741921515252,
          0.02452068975578953
        ]
      }
    },
    {
      "type": "Feature",
      "properties": {
        "norad_id": 39163,
        "name": "EUTELSAT 7B",
        "group": "eutelsat",
        "lat": 0.027767560898852843,
        "lon": 175.69779642837648,
        "alt_km": 35801.11654907356,
        "timestamp": "2025-12-14T05:42:18.128870+00:00",
        "meta_object_name": "EUTELSAT 7B",
        "meta_object_id": "2013-022A",
        "meta_epoch": "2025-12-13T15:11:40.735104",
        "meta_mean_motion": 1.00273402,
        "meta_eccentricity": 0.00046497,
        "meta_inclination": 0.0747,
        "meta_ra_of_asc_node": 22.8129,
        "meta_arg_of_pericenter": 295.6945,
        "meta_mean_anomaly": 358.9761,
        "meta_ephemeris_type": 0,
        "meta_classification_type": "U",
        "meta_norad_cat_id": 39163,
        "meta_element_set_no": 999,
        "meta_rev_at_epoch": 4609,
        "meta_bstar": 0,
        "meta_mean_motion_dot": 6.4e-07,
        "meta_mean_motion_ddot": 0,
        "tle_line1": "1 39163U 13022A   25347.63311036  .00000064  00000+0  00000+0 0  9992",
        "tle_line2": "2 39163   0.0747  22.8129 0004649 295.6945 358.9761  1.00273402 46096"
      },
      "geometry": {
        "type": "Point",
        "coordinates": [
          175.69779642837648,
          0.027767560898852843
        ]
      }
    },
    {
      "type": "Feature",
      "properties": {
        "norad_id": 39612,
        "name": "EXPRESS-AT1",
        "group": "eutelsat",
        "lat": -0.03491446049953176,
        "lon": -135.29008196463343,
        "alt_km": 35786.30235349462,
        "timestamp": "2025-12-14T05:42:18.128882+00:00",
        "meta_object_name": "EXPRESS-AT1",
        "meta_object_id": "2014-010A",
        "meta_epoch": "2025-12-13T10:17:31.405344",
        "meta_mean_motion": 1.00270351,
        "meta_eccentricity": 2.91e-06,
        "meta_inclination": 0.0163,
        "meta_ra_of_asc_node": 325.8059,
        "meta_arg_of_pericenter": 236.4192,
        "meta_mean_anomaly": 90.5055,
        "meta_ephemeris_type": 0,
        "meta_classification_type": "U",
        "meta_norad_cat_id": 39612,
        "meta_element_set_no": 999,
        "meta_rev_at_epoch": 4295,
        "meta_bstar": 0,
        "meta_mean_motion_dot": 0,
        "meta_mean_motion_ddot": 0,
        "tle_line1": "1 39612U 14010A   25347.42883571  .00000000  00000+0  00000+0 0  9994",
        "tle_line2": "2 39612   0.0163 325.8059 0000029 236.4192  90.5055  1.00270351 42956"
      },
      "geometry": {
        "type": "Point",
        "coordinates": [
          -135.29008196463343,
          -0.03491446049953176
        ]
      }
    },
    {
      "type": "Feature",
      "properties": {
        "norad_id": 39613,
        "name": "EXPRESS-AT2",
        "group": "eutelsat",
        "lat": -0.008913748046753106,
        "lon": -51.42039057710295,
        "alt_km": 35780.62542484492,
        "timestamp": "2025-12-14T05:42:18.128894+00:00",
        "meta_object_name": "EXPRESS-AT2",
        "meta_object_id": "2014-010B",
        "meta_epoch": "2025-12-13T15:49:37.101216",
        "meta_mean_motion": 1.00270384,
        "meta_eccentricity": 0.00014413,
        "meta_inclination": 0.019,
        "meta_ra_of_asc_node": 316.3324,
        "meta_arg_of_pericenter": 339.0793,
        "meta_mean_anomaly": 164.4354,
        "meta_ephemeris_type": 0,
        "meta_classification_type": "U",
        "meta_norad_cat_id": 39613,
        "meta_element_set_no": 999,
        "meta_rev_at_epoch": 4264,
        "meta_bstar": 0,
        "meta_mean_motion_dot": -2.66e-06,
        "meta_mean_motion_ddot": 0,
        "tle_line1": "1 39613U 14010B   25347.65945719 -.00000266  00000+0  00000+0 0  9998",
        "tle_line2": "2 39613   0.0190 316.3324 0001441 339.0793 164.4354  1.00270384 42648"
      },
      "geometry": {
        "type": "Point",
        "coordinates": [
          -51.42039057710295,
          -0.008913748046753106
        ]
      }
    }
  ]
}